[{"OBJECT_NAME":"STARLINK-30496","OBJECT_ID":"2023-147G","EPOCH":"2026-03-09T22:00:01.999584","MEAN_MOTION":15.26720352,"ECCENTRICITY":0.00015341,"INCLINATION":43.0024,"RA_OF_ASC_NODE":323.8675,"ARG_OF_PERICENTER":268.8891,"MEAN_ANOMALY":82.3061,"EPHEMERIS_TYPE":0,"CLASSIFICATION_TYPE":"U","NORAD_CAT_ID":57919,"ELEMENT_SET_NO":999,"REV_AT_EPOCH":578,"BSTAR":-0.0017400663,"MEAN_MOTION_DOT":-0.00046614,"MEAN_MOTION_DDOT":0},{"OBJECT_NAME":"OBJECT G","OBJECT_ID":"2025-155G","EPOCH":"2026-03-09T22:09:56.639808","MEAN_MOTION":15.27590702,"ECCENTRICITY":0.00081871,"INCLINATION":97.4488,"RA_OF_ASC_NODE":37.3259,"ARG_OF_PERICENTER":154.1528,"MEAN_ANOMALY":206.0122,"EPHEMERIS_TYPE":0,"CLASSIFICATION_TYPE":"U","NORAD_CAT_ID":64882,"ELEMENT_SET_NO":999,"REV_AT_EPOCH":6559,"BSTAR":0.0004792617,"MEAN_MOTION_DOT":0.00012876,"MEAN_MOTION_DDOT":0}]
